BEIDOU-2 IGSO-1 (C06)   
1 36828U 10036A   24188.55806606 -.00000100  00000+0  00000+0 0  9996
2 36828  54.2566 169.3880 0041918 207.4028 217.1016  1.00277052 51084
BEIDOU-2 G4 (C04)       
1 37210U 10057A   24189.79641694 -.00000117  00000+0  00000+0 0  9994
2 37210   1.8936  69.0848 0004171 156.4613 147.3886  1.00270645 50171
BEIDOU-2 IGSO-2 (C07)   
1 37256U 10068A   24177.03205666 -.00000185  00000+0  00000+0 0  9990
2 37256  48.8639 280.7291 0036230 210.2706 258.3565  1.00247372 49557
BEIDOU-2 IGSO-3 (C08)   
1 37384U 11013A   24189.42620116 -.00000173  00000+0  00000+0 0  9997
2 37384  61.3801  46.9138 0027047 173.7106 323.8883  1.00253943 48545
BEIDOU-2 IGSO-4 (C09)   
1 37763U 11038A   24189.42544031 -.00000022  00000+0  00000+0 0  9999
2 37763  54.5619 171.9936 0126248 229.1537 131.1226  1.00255598 47536
BEIDOU-2 G3             
1 36590U 10024A   24190.14841274 -.00000138  00000+0  00000+0 0  9998
2 36590   2.8533  61.2194 0008115 355.7938   2.5100  1.00269371 51670
BADR-5                  
1 36592U 10025A   24189.76975263  .00000141  00000+0  00000+0 0  9996
2 36592   0.0512 115.7630 0005152  15.2311  98.2776  1.00271779 51788
COMS 1                  
1 36744U 10032A   24190.02966010 -.00000349  00000+0  00000+0 0  9995
2 36744   2.9936  84.1428 0000668  18.8294 322.2948  1.00272716 51545
ARABSAT-5A              
1 36745U 10032B   24189.77062286  .00000150  00000+0  00000+0 0  9997
2 36745   0.0580  46.7622 0005476  57.9003 129.4446  1.00269671 51517
ECHOSTAR 15             
1 36792U 10034A   24190.17063160 -.00000284  00000+0  00000+0 0  9998
2 36792   0.0226 301.9313 0001802 147.5203 196.9214  1.00270101 51282
NILESAT 201             
1 36830U 10037A   24190.07271684 -.00000061  00000+0  00000+0 0  9998
2 36830   0.0123  84.9195 0004788  46.4155 174.3525  1.00271221 51184
RASCOM-QAF 1R           
1 36831U 10037B   24189.55037093  .00000015  00000+0  00000+0 0  9992
2 36831   0.0298  92.4905 0005863  12.2844  22.2449  1.00271194 51187
AEHF-1 (USA 214)        
1 36868U 10039A   24189.40751366  .00000017  00000+0  00000+0 0  9996
2 36868   6.4307  77.0814 0003928  26.1935 333.2827  1.00273269 46534
XM-5                    
1 37185U 10053A   24189.74161032 -.00000026  00000+0  00000+0 0  9998
2 37185   0.0184  26.9138 0000365 236.6268 174.4211  1.00269344 50335
BSAT-3B                 
1 37207U 10056B   24189.74731689 -.00000353  00000+0  00000+0 0  9990
2 37207   0.0661 301.4260 0001621  45.7208 317.9196  1.00270017 50162
SKYTERRA 1              
1 37218U 10061A   24189.67284843 -.00000123  00000+0  00000+0 0  9990
2 37218   3.6556  48.4917 0001599  45.4524 333.0876  1.00270968 50119
HYLAS 1                 
1 37237U 10065A   24190.02966010 -.00000280  00000+0  00000+0 0  9993
2 37237   3.8293  81.6629 0007233 293.3534  55.4485  1.00586754 49892
INTELSAT 17 (IS-17)     
1 37238U 10065B   24189.56307622 -.00000005  00000+0  00000+0 0  9994
2 37238   0.0061  41.4365 0002510  68.2345  85.0366  1.00271302 46128
EUTELSAT KA-SAT 9A      
1 37258U 10069A   24189.18243723  .00000058  00000+0  00000+0 0  9996
2 37258   0.0833 284.5029 0004397 176.0845 259.7363  1.00272429 36882
HISPASAT 30W-5          
1 37264U 10070A   24189.47239318 -.00000220  00000+0  00000+0 0  9994
2 37264   0.0412 104.6240 0005576  15.6570 305.6850  1.00271105 46065
KOREASAT 6              
1 37265U 10070B   24189.83707028 -.00000365  00000+0  00000+0 0  9993
2 37265   0.0184  95.6186 0000964  22.3747 225.6264  1.00271918 49578
INTELSAT NEW DAWN       
1 37392U 11016A   24189.55646250  .00000152  00000+0  00000+0 0  9996
2 37392   0.0263  91.5921 0000989  49.6543  17.8936  1.00274103 46171
YAHSAT 1A               
1 37393U 11016B   24189.48875344  .00000098  00000+0  00000+0 0  9996
2 37393   0.0265 285.2003 0002738 192.5800  36.5964  1.00270430 48445
SBIRS GEO-1 (USA 230)   
1 37481U 11019A   24189.84918968 -.00000008  00000+0  00000+0 0  9999
2 37481   3.0345  48.9169 0001681  56.4313 192.3459  1.00272249 48221
TELSTAR 14R             
1 37602U 11021A   24189.98799478 -.00000283  00000+0  00000+0 0  9990
2 37602   0.0235  46.3569 0002326  27.5195 145.2427  1.00268519 48677
GSAT-8                  
1 37605U 11022A   24189.84710113  .00000081  00000+0  00000+0 0  9993
2 37605   0.2919  91.2671 0002823 166.7880  28.2577  1.00273339 48125
ST-2                    
1 37606U 11022B   24189.87132859 -.00000214  00000+0  00000+0 0  9991
2 37606   0.0137  73.8764 0000845  73.1144 181.0013  1.00270692 48134
ZHONGXING-10            
1 37677U 11026A   24190.04077187 -.00000355  00000+0  00000+0 0  9992
2 37677   0.0469 241.5480 0003938 278.5886 251.5442  1.00270725 47853
SES-3                   
1 37748U 11035A   24190.17340338 -.00000104  00000+0  00000+0 0  9998
2 37748   0.0226  39.3132 0002894  69.6377 137.0695  1.00271382 47582
KAZSAT-2                
1 37749U 11035B   24189.78179713 -.00000200  00000+0  00000+0 0  9998
2 37749   0.0309 142.6556 0001775  38.1859 113.3176  1.00270436 47452
ASTRA 1N                
1 37775U 11041A   24189.76844729  .00000116  00000+0  00000+0 0  9993
2 37775   0.0520  16.5016 0004875  56.7525 148.7738  1.00270551 47281
BSAT-3C (JCSAT-110R)    
1 37776U 11041B   24189.83104987 -.00000354  00000+0  00000+0 0  9992
2 37776   0.0313 292.6222 0000068  45.9482 356.8076  1.00272613 47402
