OBJECT_NAME,OBJECT_ID,EPOCH,MEAN_MOTION,ECCENTRICITY,INCLINATION,RA_OF_ASC_NODE,ARG_OF_PERICENTER,MEAN_ANOMALY,EPHEMERIS_TYPE,CLASSIFICATION_TYPE,NORAD_CAT_ID,ELEMENT_SET_NO,REV_AT_EPOCH,BSTAR,MEAN_MOTION_DOT,MEAN_MOTION_DDOT
BEIDOU-2 G3,2010-024A,2024-07-08T03:33:42.860736,1.00269371,.0008115,2.8533,61.2194,355.7938,2.5100,0,U,36590,999,5167,0,-.138E-5,0
BADR-5,2010-025A,2024-07-07T18:28:26.627232,1.00271779,.0005152,0.0512,115.7630,15.2311,98.2776,0,U,36592,999,5178,0,.141E-5,0
COMS 1,2010-032A,2024-07-08T00:42:42.632640,1.00272716,.0000668,2.9936,84.1428,18.8294,322.2948,0,U,36744,999,5154,0,-.349E-5,0
ARABSAT-5A,2010-032B,2024-07-07T18:29:41.815104,1.00269671,.0005476,0.0580,46.7622,57.9003,129.4446,0,U,36745,999,5151,0,.15E-5,0
ECHOSTAR 15,2010-034A,2024-07-08T04:05:42.570240,1.00270101,.0001802,0.0226,301.9313,147.5203,196.9214,0,U,36792,999,5128,0,-.284E-5,0
BEIDOU-2 IGSO-1,2010-036A,2024-07-06T13:23:36.907584,1.00277052,.0041918,54.2566,169.3880,207.4028,217.1016,0,U,36828,999,5108,0,-.1E-5,0
NILESAT 201,2010-037A,2024-07-08T01:44:42.734976,1.00271221,.0004788,0.0123,84.9195,46.4155,174.3525,0,U,36830,999,5118,0,-.61E-6,0
RASCOM-QAF 1R,2010-037B,2024-07-07T13:12:32.048352,1.00271194,.0005863,0.0298,92.4905,12.2844,22.2449,0,U,36831,999,5118,0,.15E-6,0
AEHF-1 (USA 214),2010-039A,2024-07-07T09:46:49.180224,1.00273269,.0003928,6.4307,77.0814,26.1935,333.2827,0,U,36868,999,4653,0,.17E-6,0
XM-5,2010-053A,2024-07-07T17:47:55.131648,1.00269344,.0000365,0.0184,26.9138,236.6268,174.4211,0,U,37185,999,5033,0,-.26E-6,0
BSAT-3B,2010-056B,2024-07-07T17:56:08.179296,1.00270017,.0001621,0.0661,301.4260,45.7208,317.9196,0,U,37207,999,5016,0,-.353E-5,0
BEIDOU-2 G4,2010-057A,2024-07-07T19:06:50.423616,1.00270645,.0004171,1.8936,69.0848,156.4613,147.3886,0,U,37210,999,5017,0,-.117E-5,0
SKYTERRA 1,2010-061A,2024-07-07T16:08:54.104352,1.00270968,.0001599,3.6556,48.4917,45.4524,333.0876,0,U,37218,999,5011,0,-.123E-5,0
HYLAS 1,2010-065A,2024-07-08T00:42:42.632640,1.00586754,.0007233,3.8293,81.6629,293.3534,55.4485,0,U,37237,999,4989,0,-.28E-5,0
INTELSAT 17 (IS-17),2010-065B,2024-07-07T13:30:49.785408,1.00271302,.000251,0.0061,41.4365,68.2345,85.0366,0,U,37238,999,4612,0,-.5E-7,0
BEIDOU-2 IGSO-2,2010-068A,2024-06-25T00:46:09.695424,1.00247372,.003623,48.8639,280.7291,210.2706,258.3565,0,U,37256,999,4955,0,-.185E-5,0
EUTELSAT KA-SAT 9A,2010-069A,2024-07-07T04:22:42.576672,1.00272429,.0004397,0.0833,284.5029,176.0845,259.7363,0,U,37258,999,3688,0,.58E-6,0
HISPASAT 30W-5,2010-070A,2024-07-07T11:20:14.770752,1.00271105,.0005576,0.0412,104.6240,15.6570,305.6850,0,U,37264,999,4606,0,-.22E-5,0
KOREASAT 6,2010-070B,2024-07-07T20:05:22.872192,1.00271918,.0000964,0.0184,95.6186,22.3747,225.6264,0,U,37265,999,4957,0,-.365E-5,0
BEIDOU-2 IGSO-3,2011-013A,2024-07-07T10:13:43.780224,1.00253943,.0027047,61.3801,46.9138,173.7106,323.8883,0,U,37384,999,4854,0,-.173E-5,0
INTELSAT NEW DAWN,2011-016A,2024-07-07T13:21:18.360000,1.00274103,.0000989,0.0263,91.5921,49.6543,17.8936,0,U,37392,999,4617,0,.152E-5,0
YAHSAT 1A,2011-016B,2024-07-07T11:43:48.297216,1.00270430,.0002738,0.0265,285.2003,192.5800,36.5964,0,U,37393,999,4844,0,.98E-6,0
SBIRS GEO-1 (USA 230),2011-019A,2024-07-07T20:22:49.988352,1.00272249,.0001681,3.0345,48.9169,56.4313,192.3459,0,U,37481,999,4822,0,-.8E-7,0
TELSTAR 14R,2011-021A,2024-07-07T23:42:42.748992,1.00268519,.0002326,0.0235,46.3569,27.5195,145.2427,0,U,37602,999,4867,0,-.283E-5,0
GSAT-8,2011-022A,2024-07-07T20:19:49.537632,1.00273339,.0002823,0.2919,91.2671,166.7880,28.2577,0,U,37605,999,4812,0,.81E-6,0
ST-2,2011-022B,2024-07-07T20:54:42.790176,1.00270692,.0000845,0.0137,73.8764,73.1144,181.0013,0,U,37606,999,4813,0,-.214E-5,0
ZHONGXING-10,2011-026A,2024-07-08T00:58:42.689568,1.00270725,.0003938,0.0469,241.5480,278.5886,251.5442,0,U,37677,999,4785,0,-.355E-5,0
SES-3,2011-035A,2024-07-08T04:09:42.052032,1.00271382,.0002894,0.0226,39.3132,69.6377,137.0695,0,U,37748,999,4758,0,-.104E-5,0
KAZSAT-2,2011-035B,2024-07-07T18:45:47.272032,1.00270436,.0001775,0.0309,142.6556,38.1859,113.3176,0,U,37749,999,4745,0,-.2E-5,0
BEIDOU-2 IGSO-4,2011-038A,2024-07-07T10:12:38.042784,1.00255598,.0126248,54.5619,171.9936,229.1537,131.1226,0,U,37763,999,4753,0,-.22E-6,0
ASTRA 1N,2011-041A,2024-07-07T18:26:33.845856,1.00270551,.0004875,0.0520,16.5016,56.7525,148.7738,0,U,37775,999,4728,0,.116E-5,0
BSAT-3C (JCSAT-110R),2011-041B,2024-07-07T19:56:42.708768,1.00272613,.0000068,0.0313,292.6222,45.9482,356.8076,0,U,37776,999,4740,0,-.354E-5,0
